CCSDS_OMM_VERS = 2.0
CREATION_DATE  = 
ORIGINATOR     = 

OBJECT_NAME    = UNKNOWN
OBJECT_ID      = 
CENTER_NAME    = EARTH
REF_FRAME      = TEME
TIME_SYSTEM    = UTC
MEAN_ELEMENT_THEORY = SGP/SGP4

EPOCH          = 2026-03-03T04:05:33.067104
MEAN_MOTION    = 12.81434570
ECCENTRICITY   = .0150635
INCLINATION    = 56.4348
RA_OF_ASC_NODE = 345.6997
ARG_OF_PERICENTER = 250.6305
MEAN_ANOMALY   = 107.8283

EPHEMERIS_TYPE = 0
CLASSIFICATION_TYPE = U
NORAD_CAT_ID   = 81605
ELEMENT_SET_NO = 999
REV_AT_EPOCH   = 19651
BSTAR          = -.72951E-2
MEAN_MOTION_DOT = -.1881E-4
MEAN_MOTION_DDOT = 0

CCSDS_OMM_VERS = 2.0
CREATION_DATE  = 
ORIGINATOR     = 

OBJECT_NAME    = UNKNOWN
OBJECT_ID      = 
CENTER_NAME    = EARTH
REF_FRAME      = TEME
TIME_SYSTEM    = UTC
MEAN_ELEMENT_THEORY = SGP/SGP4

EPOCH          = 2026-03-03T22:09:37.064160
MEAN_MOTION    = 12.38114321
ECCENTRICITY   = .0365131
INCLINATION    = 101.8470
RA_OF_ASC_NODE = 61.3105
ARG_OF_PERICENTER = 356.6923
MEAN_ANOMALY   = 3.1739

EPHEMERIS_TYPE = 0
CLASSIFICATION_TYPE = U
NORAD_CAT_ID   = 81614
ELEMENT_SET_NO = 999
REV_AT_EPOCH   = 54802
BSTAR          = .4093E-1
MEAN_MOTION_DOT = .6671E-4
MEAN_MOTION_DDOT = 0

CCSDS_OMM_VERS = 2.0
CREATION_DATE  = 
ORIGINATOR     = 

OBJECT_NAME    = UNKNOWN
OBJECT_ID      = 
CENTER_NAME    = EARTH
REF_FRAME      = TEME
TIME_SYSTEM    = UTC
MEAN_ELEMENT_THEORY = SGP/SGP4

EPOCH          = 2026-03-04T10:30:38.527488
MEAN_MOTION    = 13.34441619
ECCENTRICITY   = .0766992
INCLINATION    = 65.8259
RA_OF_ASC_NODE = 231.7053
ARG_OF_PERICENTER = 98.3491
MEAN_ANOMALY   = 270.5180

EPHEMERIS_TYPE = 0
CLASSIFICATION_TYPE = U
NORAD_CAT_ID   = 81615
ELEMENT_SET_NO = 999
REV_AT_EPOCH   = 59376
BSTAR          = .15798E-2
MEAN_MOTION_DOT = .438E-4
MEAN_MOTION_DDOT = 0

CCSDS_OMM_VERS = 2.0
CREATION_DATE  = 
ORIGINATOR     = 

OBJECT_NAME    = UNKNOWN
OBJECT_ID      = 
CENTER_NAME    = EARTH
REF_FRAME      = TEME
TIME_SYSTEM    = UTC
MEAN_ELEMENT_THEORY = SGP/SGP4

EPOCH          = 2026-03-05T10:40:44.967360
MEAN_MOTION    = 12.57601552
ECCENTRICITY   = .0031991
INCLINATION    = 101.2672
RA_OF_ASC_NODE = 240.3135
ARG_OF_PERICENTER = 80.7272
MEAN_ANOMALY   = 279.7420

EPHEMERIS_TYPE = 0
CLASSIFICATION_TYPE = U
NORAD_CAT_ID   = 81617
ELEMENT_SET_NO = 999
REV_AT_EPOCH   = 56350
BSTAR          = .2377E-2
MEAN_MOTION_DOT = .358E-5
MEAN_MOTION_DDOT = 0

CCSDS_OMM_VERS = 2.0
CREATION_DATE  = 
ORIGINATOR     = 

OBJECT_NAME    = UNKNOWN
OBJECT_ID      = 
CENTER_NAME    = EARTH
REF_FRAME      = TEME
TIME_SYSTEM    = UTC
MEAN_ELEMENT_THEORY = SGP/SGP4

EPOCH          = 2026-02-26T01:53:09.671424
MEAN_MOTION    = 14.72174479
ECCENTRICITY   = .0063505
INCLINATION    = 66.9770
RA_OF_ASC_NODE = 318.5702
ARG_OF_PERICENTER = 176.9023
MEAN_ANOMALY   = 183.2505

EPHEMERIS_TYPE = 0
CLASSIFICATION_TYPE = U
NORAD_CAT_ID   = 81624
ELEMENT_SET_NO = 999
REV_AT_EPOCH   = 65079
BSTAR          = .72056E-3
MEAN_MOTION_DOT = .4588E-4
MEAN_MOTION_DDOT = 0

CCSDS_OMM_VERS = 2.0
CREATION_DATE  = 
ORIGINATOR     = 

OBJECT_NAME    = UNKNOWN
OBJECT_ID      = 
CENTER_NAME    = EARTH
REF_FRAME      = TEME
TIME_SYSTEM    = UTC
MEAN_ELEMENT_THEORY = SGP/SGP4

EPOCH          = 2026-03-05T02:35:33.887040
MEAN_MOTION    = 12.57296359
ECCENTRICITY   = .0979095
INCLINATION    = 65.8277
RA_OF_ASC_NODE = 323.5439
ARG_OF_PERICENTER = 44.0096
MEAN_ANOMALY   = 323.4758

EPHEMERIS_TYPE = 0
CLASSIFICATION_TYPE = U
NORAD_CAT_ID   = 81640
ELEMENT_SET_NO = 999
REV_AT_EPOCH   = 52043
BSTAR          = .6928E-3
MEAN_MOTION_DOT = .701E-5
MEAN_MOTION_DDOT = 0

CCSDS_OMM_VERS = 2.0
CREATION_DATE  = 
ORIGINATOR     = 

OBJECT_NAME    = UNKNOWN
OBJECT_ID      = 
CENTER_NAME    = EARTH
REF_FRAME      = TEME
TIME_SYSTEM    = UTC
MEAN_ELEMENT_THEORY = SGP/SGP4

EPOCH          = 2026-03-04T06:05:53.068416
MEAN_MOTION    = 13.44496347
ECCENTRICITY   = .0363333
INCLINATION    = 102.1435
RA_OF_ASC_NODE = 333.6546
ARG_OF_PERICENTER = 177.4559
MEAN_ANOMALY   = 335.5877

EPHEMERIS_TYPE = 0
CLASSIFICATION_TYPE = U
NORAD_CAT_ID   = 81652
ELEMENT_SET_NO = 999
REV_AT_EPOCH   = 58960
BSTAR          = .67858E-3
MEAN_MOTION_DOT = .528E-5
MEAN_MOTION_DDOT = 0

CCSDS_OMM_VERS = 2.0
CREATION_DATE  = 
ORIGINATOR     = 

OBJECT_NAME    = UNKNOWN
OBJECT_ID      = 
CENTER_NAME    = EARTH
REF_FRAME      = TEME
TIME_SYSTEM    = UTC
MEAN_ELEMENT_THEORY = SGP/SGP4

EPOCH          = 2026-03-05T11:34:39.529344
MEAN_MOTION    = 14.48514448
ECCENTRICITY   = .0014946
INCLINATION    = 74.0396
RA_OF_ASC_NODE = 241.6576
ARG_OF_PERICENTER = 155.6898
MEAN_ANOMALY   = 204.4970

EPHEMERIS_TYPE = 0
CLASSIFICATION_TYPE = U
NORAD_CAT_ID   = 81667
ELEMENT_SET_NO = 999
REV_AT_EPOCH   = 46862
BSTAR          = .12195E-2
MEAN_MOTION_DOT = .456E-4
MEAN_MOTION_DDOT = 0

CCSDS_OMM_VERS = 2.0
CREATION_DATE  = 
ORIGINATOR     = 

OBJECT_NAME    = UNKNOWN
OBJECT_ID      = 
CENTER_NAME    = EARTH
REF_FRAME      = TEME
TIME_SYSTEM    = UTC
MEAN_ELEMENT_THEORY = SGP/SGP4

EPOCH          = 2026-02-26T23:11:17.329056
MEAN_MOTION    = 14.10128568
ECCENTRICITY   = .002495
INCLINATION    = 66.8236
RA_OF_ASC_NODE = 172.2986
ARG_OF_PERICENTER = 182.2064
MEAN_ANOMALY   = 291.0582

EPHEMERIS_TYPE = 0
CLASSIFICATION_TYPE = U
NORAD_CAT_ID   = 81674
ELEMENT_SET_NO = 999
REV_AT_EPOCH   = 62446
BSTAR          = .61639E-3
MEAN_MOTION_DOT = .1014E-4
MEAN_MOTION_DDOT = 0

CCSDS_OMM_VERS = 2.0
CREATION_DATE  = 
ORIGINATOR     = 

OBJECT_NAME    = UNKNOWN
OBJECT_ID      = 
CENTER_NAME    = EARTH
REF_FRAME      = TEME
TIME_SYSTEM    = UTC
MEAN_ELEMENT_THEORY = SGP/SGP4

EPOCH          = 2026-03-05T09:24:12.391776
MEAN_MOTION    = 14.58020261
ECCENTRICITY   = .0023249
INCLINATION    = 81.2163
RA_OF_ASC_NODE = 208.1632
ARG_OF_PERICENTER = 45.9952
MEAN_ANOMALY   = 314.3156

EPHEMERIS_TYPE = 0
CLASSIFICATION_TYPE = U
NORAD_CAT_ID   = 81683
ELEMENT_SET_NO = 999
REV_AT_EPOCH   = 64790
BSTAR          = .1279E-2
MEAN_MOTION_DOT = .5914E-4
MEAN_MOTION_DDOT = 0

CCSDS_OMM_VERS = 2.0
CREATION_DATE  = 
ORIGINATOR     = 

OBJECT_NAME    = UNKNOWN
OBJECT_ID      = 
CENTER_NAME    = EARTH
REF_FRAME      = TEME
TIME_SYSTEM    = UTC
MEAN_ELEMENT_THEORY = SGP/SGP4

EPOCH          = 2026-03-02T02:00:56.049984
MEAN_MOTION    = 14.40797620
ECCENTRICITY   = .0002967
INCLINATION    = 70.9991
RA_OF_ASC_NODE = 213.7849
ARG_OF_PERICENTER = 99.6396
MEAN_ANOMALY   = 260.5075

EPHEMERIS_TYPE = 0
CLASSIFICATION_TYPE = U
NORAD_CAT_ID   = 81745
ELEMENT_SET_NO = 999
REV_AT_EPOCH   = 64117
BSTAR          = .10839E-2
MEAN_MOTION_DOT = .3423E-4
MEAN_MOTION_DDOT = 0

CCSDS_OMM_VERS = 2.0
CREATION_DATE  = 
ORIGINATOR     = 

OBJECT_NAME    = UNKNOWN
OBJECT_ID      = 
CENTER_NAME    = EARTH
REF_FRAME      = TEME
TIME_SYSTEM    = UTC
MEAN_ELEMENT_THEORY = SGP/SGP4

EPOCH          = 2026-03-02T05:07:19.516512
MEAN_MOTION    = 14.42122005
ECCENTRICITY   = .0013053
INCLINATION    = 82.9210
RA_OF_ASC_NODE = 158.3653
ARG_OF_PERICENTER = 2.9600
MEAN_ANOMALY   = 357.1668

EPHEMERIS_TYPE = 0
CLASSIFICATION_TYPE = U
NORAD_CAT_ID   = 81775
ELEMENT_SET_NO = 999
REV_AT_EPOCH   = 63672
BSTAR          = .21897E-2
MEAN_MOTION_DOT = .7226E-4
MEAN_MOTION_DDOT = 0

